{"type": "FeatureCollection", "features": [ {"type": "Feature", "properties": {"norad_id": 60453, "name": "LEGION 4", "group": "resource", "lat": 39.84112057767633, "lon": 101.04741544732923, "alt_km": 515.3051995493779, "timestamp": "2025-12-12T05:47:28.429923+00:00", "meta": {"OBJECT_NAME": "LEGION 4", "OBJECT_ID": "2024-146B", "EPOCH": "2025-12-11T13:41:22.476192", "MEAN_MOTION": 15.15804314, "ECCENTRICITY": 0.00095721, "INCLINATION": 45.0386, "RA_OF_ASC_NODE": 48.1484, "ARG_OF_PERICENTER": 305.0716, "MEAN_ANOMALY": 54.9265, "EPHEMERIS_TYPE": 0, "CLASSIFICATION_TYPE": "U", "NORAD_CAT_ID": 60453, "ELEMENT_SET_NO": 999, "REV_AT_EPOCH": 7240, "BSTAR": 0.00042395412, "MEAN_MOTION_DOT": 7.988e-05, "MEAN_MOTION_DDOT": 0}, "tle": {"line1": "1 60453U 24146B   25345.57039903  .00007988  00000+0  42395-3 0  9997", "line2": "2 60453  45.0386  48.1484 0009572 305.0716  54.9265 15.15804314 72406"}}, "geometry": {"type": "Point", "coordinates": [101.04741544732923, 39.84112057767633]}}, {"type": "Feature", "properties": {"norad_id": 60989, "name": "SENTINEL-2C", "group": "resource", "lat": -41.94104257029149, "lon": 66.51685494904495, "alt_km": 796.2099475195537, "timestamp": "2025-12-12T05:47:28.429933+00:00", "meta": {"OBJECT_NAME": "SENTINEL-2C", "OBJECT_ID": "2024-157A", "EPOCH": "2025-12-11T19:55:10.878528", "MEAN_MOTION": 14.30817024, "ECCENTRICITY": 0.0001198, "INCLINATION": 98.5683, "RA_OF_ASC_NODE": 58.3257, "ARG_OF_PERICENTER": 97.3806, "MEAN_ANOMALY": 262.7513, "EPHEMERIS_TYPE": 0, "CLASSIFICATION_TYPE": "U", "NORAD_CAT_ID": 60989, "ELEMENT_SET_NO": 999, "REV_AT_EPOCH": 6619, "BSTAR": 0.00010652891, "MEAN_MOTION_DOT": 2.36e-06, "MEAN_MOTION_DDOT": 0}, "tle": {"line1": "1 60989U 24157A   25345.82998702  .00000236  00000+0  10653-3 0  9993", "line2": "2 60989  98.5683  58.3257 0001198  97.3806 262.7513 14.30817024 66193"}}, "geometry": {"type": "Point", "coordinates": [66.51685494904495, -41.94104257029149]}}, {"type": "Feature", "properties": {"norad_id": 61735, "name": "IONOSFERA-M 1", "group": "resource", "lat": -57.45289696086123, "lon": 22.14502395445168, "alt_km": 823.8281882819556, "timestamp": "2025-12-12T05:47:28.429943+00:00", "meta": {"OBJECT_NAME": "IONOSFERA-M 1", "OBJECT_ID": "2024-199A", "EPOCH": "2025-12-11T23:36:36.532224", "MEAN_MOTION": 14.2271385, "ECCENTRICITY": 0.0001001, "INCLINATION": 98.7404, "RA_OF_ASC_NODE": 215.8378, "ARG_OF_PERICENTER": 23.4408, "MEAN_ANOMALY": 336.6815, "EPHEMERIS_TYPE": 0, "CLASSIFICATION_TYPE": "U", "NORAD_CAT_ID": 61735, "ELEMENT_SET_NO": 999, "REV_AT_EPOCH": 10108, "BSTAR": 7.2815017e-05, "MEAN_MOTION_DOT": 1.19e-06, "MEAN_MOTION_DDOT": 0}, "tle": {"line1": "1 61735U 24199A   25345.98375616  .00000119  00000+0  72815-4 0  9998", "line2": "2 61735  98.7404 215.8378 0001001  23.4408 336.6815 14.22713850101088"}}, "geometry": {"type": "Point", "coordinates": [22.14502395445168, -57.45289696086123]}}, {"type": "Feature", "properties": {"norad_id": 61736, "name": "IONOSFERA-M 2", "group": "resource", "lat": 59.87535599363258, "lon": -159.36837493193494, "alt_km": 809.5904234499421, "timestamp": "2025-12-12T05:47:28.429953+00:00", "meta": {"OBJECT_NAME": "IONOSFERA-M 2", "OBJECT_ID": "2024-199B", "EPOCH": "2025-12-12T00:26:30.052032", "MEAN_MOTION": 14.22716015, "ECCENTRICITY": 0.0001624, "INCLINATION": 98.7402, "RA_OF_ASC_NODE": 215.7847, "ARG_OF_PERICENTER": 111.7276, "MEAN_ANOMALY": 248.4075, "EPHEMERIS_TYPE": 0, "CLASSIFICATION_TYPE": "U", "NORAD_CAT_ID": 61736, "ELEMENT_SET_NO": 999, "REV_AT_EPOCH": 10421, "BSTAR": 7.267503e-05, "MEAN_MOTION_DOT": 1.19e-06, "MEAN_MOTION_DDOT": 0}, "tle": {"line1": "1 61736U 24199B   25346.01840338  .00000119  00000+0  72675-4 0  9996", "line2": "2 61736  98.7402 215.7847 0001624 111.7276 248.4075 14.22716015104214"}}, "geometry": {"type": "Point", "coordinates": [-159.36837493193494, 59.87535599363258]}}, {"type": "Feature", "properties": {"norad_id": 63772, "name": "BIOMASS", "group": "resource", "lat": 6.673062046622033, "lon": -7.790716515853737, "alt_km": 671.0981900427996, "timestamp": "2025-12-12T05:47:28.429963+00:00", "meta": {"OBJECT_NAME": "BIOMASS", "OBJECT_ID": "2025-090A", "EPOCH": "2025-12-11T22:27:33.952896", "MEAN_MOTION": 14.6754459, "ECCENTRICITY": 0.00011832, "INCLINATION": 98.0702, "RA_OF_ASC_NODE": 170.9572, "ARG_OF_PERICENTER": 77.4382, "MEAN_ANOMALY": 282.6954, "EPHEMERIS_TYPE": 0, "CLASSIFICATION_TYPE": "U", "NORAD_CAT_ID": 63772, "ELEMENT_SET_NO": 999, "REV_AT_EPOCH": 3322, "BSTAR": 0.00037132342, "MEAN_MOTION_DOT": 2.058e-05, "MEAN_MOTION_DDOT": 0}, "tle": {"line1": "1 63772U 25090A   25345.93580964  .00002058  00000+0  37132-3 0  9997", "line2": "2 63772  98.0702 170.9572 0001183  77.4382 282.6954 14.67544590 33229"}}, "geometry": {"type": "Point", "coordinates": [-7.790716515853737, 6.673062046622033]}}, {"type": "Feature", "properties": {"norad_id": 64694, "name": "GOSAT-GW (IBUKI GW)", "group": "resource", "lat": 22.246937354985523, "lon": -81.55244447033688, "alt_km": 668.0178356447859, "timestamp": "2025-12-12T05:47:28.429973+00:00", "meta": {"OBJECT_NAME": "GOSAT-GW (IBUKI GW)", "OBJECT_ID": "2025-141A", "EPOCH": "2025-12-11T23:08:37.546080", "MEAN_MOTION": 14.6756822, "ECCENTRICITY": 0.00015214, "INCLINATION": 98.0424, "RA_OF_ASC_NODE": 281.4912, "ARG_OF_PERICENTER": 83.0567, "MEAN_ANOMALY": 277.0811, "EPHEMERIS_TYPE": 0, "CLASSIFICATION_TYPE": "U", "NORAD_CAT_ID": 64694, "ELEMENT_SET_NO": 999, "REV_AT_EPOCH": 2438, "BSTAR": 0.00021554209, "MEAN_MOTION_DOT": 1.175e-05, "MEAN_MOTION_DDOT": 0}, "tle": {"line1": "1 64694U 25141A   25345.96432345  .00001175  00000+0  21554-3 0  9990", "line2": "2 64694  98.0424 281.4912 0001521  83.0567 277.0811 14.67568220 24387"}}, "geometry": {"type": "Point", "coordinates": [-81.55244447033688, 22.246937354985523]}}, {"type": "Feature", "properties": {"norad_id": 64876, "name": "IONOSFERA-M 3", "group": "resource", "lat": 70.3688006675206, "lon": 153.15590390522, "alt_km": 812.5537637452953, "timestamp": "2025-12-12T05:47:28.429984+00:00", "meta": {"OBJECT_NAME": "IONOSFERA-M 3", "OBJECT_ID": "2025-155A", "EPOCH": "2025-12-12T00:13:06.468960", "MEAN_MOTION": 14.21440769, "ECCENTRICITY": 0.00022405, "INCLINATION": 98.5781, "RA_OF_ASC_NODE": 307.8959, "ARG_OF_PERICENTER": 61.1109, "MEAN_ANOMALY": 299.0293, "EPHEMERIS_TYPE": 0, "CLASSIFICATION_TYPE": "U", "NORAD_CAT_ID": 64876, "ELEMENT_SET_NO": 999, "REV_AT_EPOCH": 1981, "BSTAR": 9.2461363e-05, "MEAN_MOTION_DOT": 1.59e-06, "MEAN_MOTION_DDOT": 0}, "tle": {"line1": "1 64876U 25155A   25346.00910265  .00000159  00000+0  92461-4 0  9992", "line2": "2 64876  98.5781 307.8959 0002240  61.1109 299.0293 14.21440769 19819"}}, "geometry": {"type": "Point", "coordinates": [153.15590390522, 70.3688006675206]}}, {"type": "Feature", "properties": {"norad_id": 64877, "name": "IONOSFERA-M 4", "group": "resource", "lat": -69.8753275116443, "lon": -27.634032599546178, "alt_km": 828.5507419054493, "timestamp": "2025-12-12T05:47:28.429995+00:00", "meta": {"OBJECT_NAME": "IONOSFERA-M 4", "OBJECT_ID": "2025-155B", "EPOCH": "2025-12-11T23:22:14.445984", "MEAN_MOTION": 14.21441843, "ECCENTRICITY": 0.00015971, "INCLINATION": 98.578, "RA_OF_ASC_NODE": 307.7811, "ARG_OF_PERICENTER": 64.2108, "MEAN_ANOMALY": 295.9234, "EPHEMERIS_TYPE": 0, "CLASSIFICATION_TYPE": "U", "NORAD_CAT_ID": 64877, "ELEMENT_SET_NO": 999, "REV_AT_EPOCH": 1980, "BSTAR": 9.0107794e-05, "MEAN_MOTION_DOT": 1.54e-06, "MEAN_MOTION_DDOT": 0}, "tle": {"line1": "1 64877U 25155B   25345.97377831  .00000154  00000+0  90108-4 0  9995", "line2": "2 64877  98.5780 307.7811 0001597  64.2108 295.9234 14.21441843 19805"}}, "geometry": {"type": "Point", "coordinates": [-27.634032599546178, -69.8753275116443]}}, {"type": "Feature", "properties": {"norad_id": 64899, "name": "MICROCARB", "group": "resource", "lat": -7.910190381555761, "lon": 62.714844208975165, "alt_km": 669.2882265030612, "timestamp": "2025-12-12T05:47:28.430005+00:00", "meta": {"OBJECT_NAME": "MICROCARB", "OBJECT_ID": "2025-156A", "EPOCH": "2025-12-11T15:08:43.056960", "MEAN_MOTION": 14.72054339, "ECCENTRICITY": 0.001708, "INCLINATION": 98.0027, "RA_OF_ASC_NODE": 60.9944, "ARG_OF_PERICENTER": 148.1137, "MEAN_ANOMALY": 212.1108, "EPHEMERIS_TYPE": 0, "CLASSIFICATION_TYPE": "U", "NORAD_CAT_ID": 64899, "ELEMENT_SET_NO": 999, "REV_AT_EPOCH": 2037, "BSTAR": 0.0001938356, "MEAN_MOTION_DOT": 1.171e-05, "MEAN_MOTION_DDOT": 0}, "tle": {"line1": "1 64899U 25156A   25345.63105390  .00001171  00000+0  19384-3 0  9998", "line2": "2 64899  98.0027  60.9944 0017080 148.1137 212.1108 14.72054339 20372"}}, "geometry": {"type": "Point", "coordinates": [62.714844208975165, -7.910190381555761]}}, {"type": "Feature", "properties": {"norad_id": 64900, "name": "CO3D 3", "group": "resource", "lat": -51.897016980506606, "lon": 72.19938724901017, "alt_km": 512.932766904758, "timestamp": "2025-12-12T05:47:28.430015+00:00", "meta": {"OBJECT_NAME": "CO3D 3", "OBJECT_ID": "2025-156B", "EPOCH": "2025-12-11T23:42:10.838016", "MEAN_MOTION": 15.2021493, "ECCENTRICITY": 0.000132, "INCLINATION": 97.4334, "RA_OF_ASC_NODE": 62.3654, "ARG_OF_PERICENTER": 97.0899, "MEAN_ANOMALY": 263.0486, "EPHEMERIS_TYPE": 0, "CLASSIFICATION_TYPE": "U", "NORAD_CAT_ID": 64900, "ELEMENT_SET_NO": 999, "REV_AT_EPOCH": 2109, "BSTAR": 0.0011143188, "MEAN_MOTION_DOT": 0.00024143, "MEAN_MOTION_DDOT": 0}, "tle": {"line1": "1 64900U 25156B   25345.98762544  .00024143  00000+0  11143-2 0  9997", "line2": "2 64900  97.4334  62.3654 0001320  97.0899 263.0486 15.20214930 21093"}}, "geometry": {"type": "Point", "coordinates": [72.19938724901017, -51.897016980506606]}}]}